SUOMI NPP
1 37849U 26102.85864583  5.20000-7 4.54720-5 0 0                     
2 37849  98.7910  44.1973 0002372 127.6977 232.4415 14.19503079      
NOAA 20 (JPSS-1)
1 43013U 26102.80214120  5.50000-7 4.70770-5 0 0                     
2 43013  98.7730  42.8588 0002140  91.1851 268.9570 14.19545133      
NOAA 21 (JPSS-2)
1 54234U 26102.83645833  2.60000-7 3.30120-5 0 0                     
2 54234  98.7592  42.7196 0002402  46.6239 313.5137 14.19561301      
NOAA 18
1 28654U 26102.79694444  1.30000-7 2.98490-5 0 0                     
2 28654  98.8118 183.4193 0013770 341.1517  18.9144 14.13717890      
NOAA 19
1 33591U 26102.78422454  2.00000-7 3.45970-5 0 0                     
2 33591  98.9551 173.6023 0013266 211.4310 148.6070 14.13463690      
