[{"OBJECT_NAME":"NOAA 18","OBJECT_ID":"2005-018A","EPOCH":"2026-04-12T19:07:36.131808","MEAN_MOTION":14.1371789,"ECCENTRICITY":0.001377,"INCLINATION":98.8118,"RA_OF_ASC_NODE":183.4193,"ARG_OF_PERICENTER":341.1517,"MEAN_ANOMALY":18.9144,"EPHEMERIS_TYPE":0,"CLASSIFICATION_TYPE":"U","NORAD_CAT_ID":28654,"ELEMENT_SET_NO":999,"REV_AT_EPOCH":7707,"BSTAR":2.9849e-5,"MEAN_MOTION_DOT":1.3e-7,"MEAN_MOTION_DDOT":0},{"OBJECT_NAME":"NOAA 19","OBJECT_ID":"2009-005A","EPOCH":"2026-04-12T18:49:17.281056","MEAN_MOTION":14.1346369,"ECCENTRICITY":0.0013266,"INCLINATION":98.9551,"RA_OF_ASC_NODE":173.6023,"ARG_OF_PERICENTER":211.431,"MEAN_ANOMALY":148.607,"EPHEMERIS_TYPE":0,"CLASSIFICATION_TYPE":"U","NORAD_CAT_ID":33591,"ELEMENT_SET_NO":999,"REV_AT_EPOCH":88524,"BSTAR":3.4597e-5,"MEAN_MOTION_DOT":2.0e-7,"MEAN_MOTION_DDOT":0},{"OBJECT_NAME":"SUOMI NPP","OBJECT_ID":"2011-061A","EPOCH":"2026-04-12T20:36:27.169056","MEAN_MOTION":14.19503079,"ECCENTRICITY":0.0002372,"INCLINATION":98.791,"RA_OF_ASC_NODE":44.1973,"ARG_OF_PERICENTER":127.6977,"MEAN_ANOMALY":232.4415,"EPHEMERIS_TYPE":0,"CLASSIFICATION_TYPE":"U","NORAD_CAT_ID":37849,"ELEMENT_SET_NO":999,"REV_AT_EPOCH":74917,"BSTAR":4.5472e-5,"MEAN_MOTION_DOT":5.2e-7,"MEAN_MOTION_DDOT":0},{"OBJECT_NAME":"NOAA 20 (JPSS-1)","OBJECT_ID":"2017-073A","EPOCH":"2026-04-12T19:15:05.237280","MEAN_MOTION":14.19545133,"ECCENTRICITY":0.000214,"INCLINATION":98.773,"RA_OF_ASC_NODE":42.8588,"ARG_OF_PERICENTER":91.1851,"MEAN_ANOMALY":268.957,"EPHEMERIS_TYPE":0,"CLASSIFICATION_TYPE":"U","NORAD_CAT_ID":43013,"ELEMENT_SET_NO":999,"REV_AT_EPOCH":43519,"BSTAR":4.7077e-5,"MEAN_MOTION_DOT":5.5e-7,"MEAN_MOTION_DDOT":0},{"OBJECT_NAME":"NOAA 21 (JPSS-2)","OBJECT_ID":"2022-150A","EPOCH":"2026-04-12T20:04:30.660672","MEAN_MOTION":14.19561301,"ECCENTRICITY":0.0002402,"INCLINATION":98.7592,"RA_OF_ASC_NODE":42.7196,"ARG_OF_PERICENTER":46.6239,"MEAN_ANOMALY":313.5137,"EPHEMERIS_TYPE":0,"CLASSIFICATION_TYPE":"U","NORAD_CAT_ID":54234,"ELEMENT_SET_NO":999,"REV_AT_EPOCH":17727,"BSTAR":3.3012e-5,"MEAN_MOTION_DOT":2.6e-7,"MEAN_MOTION_DDOT":0}]
